TRANSPORTER-11 OBJECT A 
1 60468U 24149A   26068.74646182  .00010774  00000+0  36054-3 0  9993
2 60468  97.3780 149.0949 0003110 191.0010 169.1164 15.31141332 86830
STARLINK-33746          
1 63446U 25069P   26068.48765977  .00035734  00000+0  12137-2 0  9997
2 63446  53.1577 143.4231 0001347  64.1172 295.9968 15.30176492 53326
